ONEWEB-0229             
1 48779U 21045N   25356.07634451  .00000025  00000+0  32255-4 0  9995
2 48779  87.9007 294.5259 0001973  75.6128 284.5221 13.15549960221128
ONEWEB-0228             
1 48780U 21045P   25356.10976681 -.00000036  00000+0 -13003-3 0  9998
2 48780  87.9007 294.5042 0001856  73.7282 286.4053 13.15548107221047
ONEWEB-0232             
1 48781U 21045Q   25355.85610785 -.00000098  00000+0 -29537-3 0  9997
2 48781  87.9023 294.5478 0001855  74.8536 285.2800 13.15548934221339
ONEWEB-0231             
1 48782U 21045R   25355.75785976  .00000175  00000+0  43017-3 0  9995
2 48782  87.8992 294.6094 0001989  71.5925 288.5422 13.15549917221016
ONEWEB-0234             
1 48783U 21045S   25355.87180744 -.00000070  00000+0 -21944-3 0  9992
2 48783  87.8999 294.5597 0000972  84.0219 276.1022 13.15549067221168
ONEWEB-0238             
1 48784U 21045T   25356.10026117 -.00000084  00000+0 -25775-3 0  9994
2 48784  87.8997 294.5074 0001354  79.5175 280.6108 13.15547225221093
ONEWEB-0240             
1 48785U 21045U   25355.89331582  .00000102  00000+0  23821-3 0  9994
2 48785  87.9012 294.5451 0001723  65.3688 294.7621 13.15551254221097
ONEWEB-0246             
1 48786U 21045V   25355.73565902  .00000047  00000+0  90364-4 0  9998
2 48786  87.9013 294.5866 0001956  75.3412 284.7935 13.15550138220943
